{"type": "FeatureCollection", "features": [ {"type": "Feature", "properties": {"norad_id": 38552, "name": "METEOSAT-10 (MSG-3)", "group": "weather", "lat": -3.5595505389178914, "lon": 4.245018454240705, "alt_km": 35784.11487793505, "timestamp": "2025-12-10T18:56:59.704834+00:00", "meta": {"OBJECT_NAME": "METEOSAT-10 (MSG-3)", "OBJECT_ID": "2012-035B", "EPOCH": "2025-12-09T20:25:24.031776", "MEAN_MOTION": 1.00274082, "ECCENTRICITY": 8.515e-05, "INCLINATION": 4.2224, "RA_OF_ASC_NODE": 61.7294, "ARG_OF_PERICENTER": 241.822, "MEAN_ANOMALY": 81.7823, "EPHEMERIS_TYPE": 0, "CLASSIFICATION_TYPE": "U", "NORAD_CAT_ID": 38552, "ELEMENT_SET_NO": 999, "REV_AT_EPOCH": 4895, "BSTAR": 0, "MEAN_MOTION_DOT": -4e-08, "MEAN_MOTION_DDOT": 0}, "tle": {"line1": "1 38552U 12035B   25343.85097259 -.00000004  00000+0  00000+0 0  9999", "line2": "2 38552   4.2224  61.7294 0000851 241.8220  81.7823  1.00274082 48950"}}, "geometry": {"type": "Point", "coordinates": [4.245018454240705, -3.5595505389178914]}}, {"type": "Feature", "properties": {"norad_id": 38771, "name": "METOP-B", "group": "weather", "lat": -14.307795564890517, "lon": -147.45151212105944, "alt_km": 823.7783076003316, "timestamp": "2025-12-10T18:56:59.704846+00:00", "meta": {"OBJECT_NAME": "METOP-B", "OBJECT_ID": "2012-049A", "EPOCH": "2025-12-10T09:35:29.208768", "MEAN_MOTION": 14.21407015, "ECCENTRICITY": 0.0002814, "INCLINATION": 98.6803, "RA_OF_ASC_NODE": 34.3981, "ARG_OF_PERICENTER": 149.1513, "MEAN_ANOMALY": 210.983, "EPHEMERIS_TYPE": 0, "CLASSIFICATION_TYPE": "U", "NORAD_CAT_ID": 38771, "ELEMENT_SET_NO": 999, "REV_AT_EPOCH": 68644, "BSTAR": 0.00011904, "MEAN_MOTION_DOT": 2.16e-06, "MEAN_MOTION_DDOT": 0}, "tle": {"line1": "1 38771U 12049A   25344.39964362  .00000216  00000+0  11904-3 0  9998", "line2": "2 38771  98.6803  34.3981 0002814 149.1513 210.9830 14.21407015686445"}}, "geometry": {"type": "Point", "coordinates": [-147.45151212105944, -14.307795564890517]}}, {"type": "Feature", "properties": {"norad_id": 39216, "name": "INSAT-3D", "group": "weather", "lat": 1.0884182683587642, "lon": 133.52462470757357, "alt_km": 35789.05570733819, "timestamp": "2025-12-10T18:56:59.704857+00:00", "meta": {"OBJECT_NAME": "INSAT-3D", "OBJECT_ID": "2013-038B", "EPOCH": "2025-12-10T05:30:26.805024", "MEAN_MOTION": 1.00270959, "ECCENTRICITY": 0.0001606, "INCLINATION": 1.4387, "RA_OF_ASC_NODE": 85.0161, "ARG_OF_PERICENTER": 162.7742, "MEAN_ANOMALY": 43.5747, "EPHEMERIS_TYPE": 0, "CLASSIFICATION_TYPE": "U", "NORAD_CAT_ID": 39216, "ELEMENT_SET_NO": 999, "REV_AT_EPOCH": 4518, "BSTAR": 0, "MEAN_MOTION_DOT": -3.35e-06, "MEAN_MOTION_DDOT": 0}, "tle": {"line1": "1 39216U 13038B   25344.22947691 -.00000335  00000+0  00000+0 0  9994", "line2": "2 39216   1.4387  85.0161 0001606 162.7742  43.5747  1.00270959 45180"}}, "geometry": {"type": "Point", "coordinates": [133.52462470757357, 1.0884182683587642]}}, {"type": "Feature", "properties": {"norad_id": 39260, "name": "FENGYUN 3C", "group": "weather", "lat": 57.663824817016405, "lon": 156.18840310020724, "alt_km": 832.6811530738169, "timestamp": "2025-12-10T18:56:59.704868+00:00", "meta": {"OBJECT_NAME": "FENGYUN 3C", "OBJECT_ID": "2013-052A", "EPOCH": "2025-12-10T11:35:35.139840", "MEAN_MOTION": 14.15695217, "ECCENTRICITY": 0.0014158, "INCLINATION": 98.4761, "RA_OF_ASC_NODE": 322.2726, "ARG_OF_PERICENTER": 202.7278, "MEAN_ANOMALY": 157.3272, "EPHEMERIS_TYPE": 0, "CLASSIFICATION_TYPE": "U", "NORAD_CAT_ID": 39260, "ELEMENT_SET_NO": 999, "REV_AT_EPOCH": 63186, "BSTAR": 0.00012391, "MEAN_MOTION_DOT": 2.02e-06, "MEAN_MOTION_DDOT": 0}, "tle": {"line1": "1 39260U 13052A   25344.48304560  .00000202  00000+0  12391-3 0  9991", "line2": "2 39260  98.4761 322.2726 0014158 202.7278 157.3272 14.15695217631860"}}, "geometry": {"type": "Point", "coordinates": [156.18840310020724, 57.663824817016405]}}, {"type": "Feature", "properties": {"norad_id": 40069, "name": "METEOR-M 2", "group": "weather", "lat": 61.59425084340217, "lon": -53.58468761707755, "alt_km": 817.7936997410297, "timestamp": "2025-12-10T18:56:59.704879+00:00", "meta": {"OBJECT_NAME": "METEOR-M 2", "OBJECT_ID": "2014-037A", "EPOCH": "2025-12-10T11:53:50.911296", "MEAN_MOTION": 14.21385695, "ECCENTRICITY": 0.0004871, "INCLINATION": 98.4903, "RA_OF_ASC_NODE": 322.1659, "ARG_OF_PERICENTER": 217.4198, "MEAN_ANOMALY": 142.6642, "EPHEMERIS_TYPE": 0, "CLASSIFICATION_TYPE": "U", "NORAD_CAT_ID": 40069, "ELEMENT_SET_NO": 999, "REV_AT_EPOCH": 59251, "BSTAR": 0.00024954, "MEAN_MOTION_DOT": 5.03e-06, "MEAN_MOTION_DDOT": 0}, "tle": {"line1": "1 40069U 14037A   25344.49572814  .00000503  00000+0  24954-3 0  9996", "line2": "2 40069  98.4903 322.1659 0004871 217.4198 142.6642 14.21385695592515"}}, "geometry": {"type": "Point", "coordinates": [-53.58468761707755, 61.59425084340217]}}, {"type": "Feature", "properties": {"norad_id": 40267, "name": "HIMAWARI-8", "group": "weather", "lat": -0.01686659218823429, "lon": 144.656638002222, "alt_km": 35791.2239476446, "timestamp": "2025-12-10T18:56:59.704890+00:00", "meta": {"OBJECT_NAME": "HIMAWARI-8", "OBJECT_ID": "2014-060A", "EPOCH": "2025-12-10T08:49:38.682048", "MEAN_MOTION": 1.00270438, "ECCENTRICITY": 0.0001237, "INCLINATION": 0.034, "RA_OF_ASC_NODE": 206.5941, "ARG_OF_PERICENTER": 92.8974, "MEAN_ANOMALY": 52.9234, "EPHEMERIS_TYPE": 0, "CLASSIFICATION_TYPE": "U", "NORAD_CAT_ID": 40267, "ELEMENT_SET_NO": 999, "REV_AT_EPOCH": 4086, "BSTAR": 0, "MEAN_MOTION_DOT": -2.72e-06, "MEAN_MOTION_DDOT": 0}, "tle": {"line1": "1 40267U 14060A   25344.36780882 -.00000272  00000+0  00000+0 0  9990", "line2": "2 40267   0.0340 206.5941 0001237  92.8974  52.9234  1.00270438 40865"}}, "geometry": {"type": "Point", "coordinates": [144.656638002222, -0.01686659218823429]}}, {"type": "Feature", "properties": {"norad_id": 40367, "name": "FENGYUN 2G", "group": "weather", "lat": 2.4756802587361646, "lon": 103.48097514286498, "alt_km": 35800.56644295518, "timestamp": "2025-12-10T18:56:59.704902+00:00", "meta": {"OBJECT_NAME": "FENGYUN 2G", "OBJECT_ID": "2014-090A", "EPOCH": "2025-12-10T13:59:46.750272", "MEAN_MOTION": 1.0026471, "ECCENTRICITY": 0.0003114, "INCLINATION": 5.163, "RA_OF_ASC_NODE": 75.1181, "ARG_OF_PERICENTER": 194.5305, "MEAN_ANOMALY": 119.4364, "EPHEMERIS_TYPE": 0, "CLASSIFICATION_TYPE": "U", "NORAD_CAT_ID": 40367, "ELEMENT_SET_NO": 999, "REV_AT_EPOCH": 4010, "BSTAR": 0, "MEAN_MOTION_DOT": -2.97e-06, "MEAN_MOTION_DDOT": 0}, "tle": {"line1": "1 40367U 14090A   25344.58317998 -.00000297  00000+0  00000+0 0  9999", "line2": "2 40367   5.1630  75.1181 0003114 194.5305 119.4364  1.00264710 40100"}}, "geometry": {"type": "Point", "coordinates": [103.48097514286498, 2.4756802587361646]}}, {"type": "Feature", "properties": {"norad_id": 40732, "name": "METEOSAT-11 (MSG-4)", "group": "weather", "lat": -2.3234955630066167, "lon": 13.360139301069681, "alt_km": 35791.816645364735, "timestamp": "2025-12-10T18:56:59.704914+00:00", "meta": {"OBJECT_NAME": "METEOSAT-11 (MSG-4)", "OBJECT_ID": "2015-034A", "EPOCH": "2025-12-09T22:35:38.584320", "MEAN_MOTION": 1.00266624, "ECCENTRICITY": 9.647e-05, "INCLINATION": 2.7284, "RA_OF_ASC_NODE": 72.0094, "ARG_OF_PERICENTER": 122.8009, "MEAN_ANOMALY": 232.3625, "EPHEMERIS_TYPE": 0, "CLASSIFICATION_TYPE": "U", "NORAD_CAT_ID": 40732, "ELEMENT_SET_NO": 999, "REV_AT_EPOCH": 531, "BSTAR": 0, "MEAN_MOTION_DOT": 6.4e-07, "MEAN_MOTION_DDOT": 0}, "tle": {"line1": "1 40732U 15034A   25343.94141880  .00000064  00000+0  00000+0 0  9999", "line2": "2 40732   2.7284  72.0094 0000964 122.8009 232.3625  1.00266624  5313"}}, "geometry": {"type": "Point", "coordinates": [13.360139301069681, -2.3234955630066167]}}, {"type": "Feature", "properties": {"norad_id": 41105, "name": "ELEKTRO-L 2", "group": "weather", "lat": -6.179378278399874, "lon": -10.410087947719562, "alt_km": 35783.45945846558, "timestamp": "2025-12-10T18:56:59.704926+00:00", "meta": {"OBJECT_NAME": "ELEKTRO-L 2", "OBJECT_ID": "2015-074A", "EPOCH": "2025-12-09T01:31:10.511904", "MEAN_MOTION": 1.00271905, "ECCENTRICITY": 0.00038363, "INCLINATION": 6.2161, "RA_OF_ASC_NODE": 72.8685, "ARG_OF_PERICENTER": 198.9202, "MEAN_ANOMALY": 174.5582, "EPHEMERIS_TYPE": 0, "CLASSIFICATION_TYPE": "U", "NORAD_CAT_ID": 41105, "ELEMENT_SET_NO": 999, "REV_AT_EPOCH": 3660, "BSTAR": 0, "MEAN_MOTION_DOT": -1.16e-06, "MEAN_MOTION_DDOT": 0}, "tle": {"line1": "1 41105U 15074A   25343.06331611 -.00000116  00000+0  00000+0 0  9993", "line2": "2 41105   6.2161  72.8685 0003836 198.9202 174.5582  1.00271905 36608"}}, "geometry": {"type": "Point", "coordinates": [-10.410087947719562, -6.179378278399874]}}, {"type": "Feature", "properties": {"norad_id": 41752, "name": "INSAT-3DR", "group": "weather", "lat": 0.00702899266232793, "lon": 78.04280578305563, "alt_km": 35846.28978609065, "timestamp": "2025-12-10T18:56:59.704938+00:00", "meta": {"OBJECT_NAME": "INSAT-3DR", "OBJECT_ID": "2016-054A", "EPOCH": "2025-12-10T08:41:38.596128", "MEAN_MOTION": 1.00270503, "ECCENTRICITY": 0.0014472, "INCLINATION": 0.0862, "RA_OF_ASC_NODE": 86.5692, "ARG_OF_PERICENTER": 183.809, "MEAN_ANOMALY": 13.3753, "EPHEMERIS_TYPE": 0, "CLASSIFICATION_TYPE": "U", "NORAD_CAT_ID": 41752, "ELEMENT_SET_NO": 999, "REV_AT_EPOCH": 3392, "BSTAR": 0, "MEAN_MOTION_DOT": -7.3e-07, "MEAN_MOTION_DDOT": 0}, "tle": {"line1": "1 41752U 16054A   25344.36225227 -.00000073  00000+0  00000+0 0  9991", "line2": "2 41752   0.0862  86.5692 0014472 183.8090  13.3753  1.00270503 33927"}}, "geometry": {"type": "Point", "coordinates": [78.04280578305563, 0.00702899266232793]}}]}